IRIDIUM 57              
1 25273U 98019B   24196.75452540  .00000621  00000+0  21019-3 0  9994
2 25273  86.3957 286.5742 0002227  94.7688 265.3763 14.35281400376374
IRIDIUM 63              
1 25286U 98021B   24196.83730608  .00000521  00000+0  17341-3 0  9996
2 25286  86.3978 223.4404 0002117  90.5758 269.5681 14.35830243375421
IRIDIUM 69              
1 25319U 98026A   24196.82442989  .00000778  00000+0  24040-3 0  9997
2 25319  86.3963 237.7477 0004397  74.2934 285.8749 14.40078720374499
IRIDIUM 73              
1 25344U 98032C   24196.89371340  .00001086  00000+0  27182-3 0  9994
2 25344  86.4442 189.8829 0002907  83.1079 277.0456 14.50626846381644
IRIDIUM 82              
1 25467U 98051A   24196.69671883  .00022647  00000+0  11013-2 0  9995
2 25467  86.3731 272.7107 0127094 119.3894 242.0105 15.11338261372645
